[
    {
        "Altitude(m)": 605470.7745349564,
        "Argument of Periapsis(deg)": 0.0,
        "Eccentricity": 0.0,
        "Inclination(deg)": 60.0,
        "Latitude(deg)": 27.98815593910506,
        "Longitude(deg)": 172.26299510245818,
        "Mean Anomaly(deg)": 147.27270000000001,
        "RAAN(deg)": 110.00000000000001,
        "Satellite Name": "Test1 493",
        "Satellite Number": 493,
        "Semi-Major Axis(m)": 6980739.136638005,
        "Time(s)": 0
    },
    {
        "Altitude(m)": 605395.8124377452,
        "Argument of Periapsis(deg)": 0.00010418945913296404,
        "Eccentricity": 0.0,
        "Inclination(deg)": 60.0,
        "Latitude(deg)": 27.47384606925131,
        "Longitude(deg)": 172.61618168444284,
        "Mean Anomaly(deg)": 147.8928061454618,
        "RAAN(deg)": 109.99957995086025,
        "Satellite Name": "Test1 493",
        "Satellite Number": 493,
        "Semi-Major Axis(m)": 6980739.136638005,
        "Time(s)": 10
    }
]